NORAD_CAT_ID,OBJECT_NAME,OBJECT_TYPE,EPOCH,MEAN_MOTION,ECCENTRICITY,INCLINATION,RA_OF_ASC_NODE,ARG_OF_PERICENTER,MEAN_ANOMALY,BSTAR,MEAN_MOTION_DOT,MEAN_MOTION_DDOT,TLE_LINE0,TLE_LINE1,TLE_LINE2,SEMIMAJOR_AXIS,PERIOD,APOGEE,PERIGEE,DECAYED
52382.0,STARLINK-3799,PAYLOAD,2024-04-05 09:26:16,15.08840185,0.0001361,53.2164,106.3496,85.3421,274.7727,9.3338e-05,1.198e-05,0.0,0 STARLINK-3799,1 52382U 22045BD  24096.39324683  .00001198  00000-0  93338-4 0  9991,2 52382  53.2164 106.3496 0001361  85.3421 274.7727 15.08840185109754,6917.88,95.438,540.686,538.803,0.0
52382.0,STARLINK-3799,PAYLOAD,2024-04-05 17:23:11,15.08844649,0.0001368,53.2167,104.8628,84.4462,275.6686,0.00012613,1.72e-05,0.0,0 STARLINK-3799,1 52382U 22045BD  24096.72444261  .00001720  00000-0  12613-3 0  9990,2 52382  53.2167 104.8628 0001368  84.4462 275.6686 15.08844649109808,6917.866,95.437,540.678,538.785,0.0
52382.0,STARLINK-3799,PAYLOAD,2024-04-06 04:30:54,15.08831661,0.0001673,53.2187,102.7853,103.4927,256.6252,7.9667e-05,9.8e-06,0.0,0 STARLINK-3799,1 52382U 22045BD  24097.18813300  .00000980  00000-0  79667-4 0  9995,2 52382  53.2187 102.7853 0001673 103.4927 256.6252 15.08831661109879,6917.906,95.438,540.928,538.614,0.0
52382.0,STARLINK-3799,PAYLOAD,2024-04-06 09:17:04,15.08833047,0.000161,53.2183,101.8931,98.593,261.5245,6.9214e-05,8.14e-06,0.0,0 STARLINK-3799,1 52382U 22045BD  24097.38685326  .00000814  00000-0  69214-4 0  9995,2 52382  53.2183 101.8931 0001610  98.5930 261.5245 15.08833047109902,6917.902,95.438,540.88,538.653,0.0
52382.0,STARLINK-3799,PAYLOAD,2024-04-06 17:13:59,15.08838638,0.0001518,53.2179,100.4046,92.6074,267.5092,8.9463e-05,1.136e-05,0.0,0 STARLINK-3799,1 52382U 22045BD  24097.71804990  .00001136  00000-0  89463-4 0  9998,2 52382  53.2179 100.4046 0001518  92.6074 267.5092 15.08838638109952,6917.885,95.438,540.8,538.699,0.0
52382.0,STARLINK-3799,PAYLOAD,2024-04-07 09:07:51,15.08837731,0.0001538,53.2175,97.4298,87.9458,272.1711,-2.1349e-05,-6.28e-06,0.0,0 STARLINK-3799,1 52382U 22045BD  24098.38045533 -.00000628  00000-0 -21349-4 0  9998,2 52382  53.2175  97.4298 0001538  87.9458 272.1711 15.08837731110053,6917.887,95.438,540.816,538.688,0.0
52382.0,STARLINK-3799,PAYLOAD,2024-04-07 17:04:46,15.0884419,0.0001572,53.2179,95.9425,86.0058,274.1114,7.4637e-06,-1.69e-06,0.0,0 STARLINK-3799,1 52382U 22045BD  24098.71165033 -.00000169  00000-0  74637-5 0  9991,2 52382  53.2179  95.9425 0001572  86.0058 274.1114 15.08844190110108,6917.868,95.437,540.82,538.645,0.0
52382.0,STARLINK-3799,PAYLOAD,2024-04-08 08:58:37,15.08843295,0.0001487,53.2171,92.9686,88.094,272.0222,6.9323e-05,8.16e-06,0.0,0 STARLINK-3799,1 52382U 22045BD  24099.37404881  .00000816  00000-0  69323-4 0  9994,2 52382  53.2171  92.9686 0001487  88.0940 272.0222 15.08843295110206,6917.87,95.437,540.764,538.707,0.0
52382.0,STARLINK-3799,PAYLOAD,2024-04-08 16:55:33,15.08846836,0.0001489,53.2172,91.4819,88.1506,271.9656,8.6851e-05,1.095e-05,0.0,0 STARLINK-3799,1 52382U 22045BD  24099.70524539  .00001095  00000-0  86851-4 0  9999,2 52382  53.2172  91.4819 0001489  88.1506 271.9656 15.08846836110258,6917.859,95.437,540.755,538.694,0.0
52382.0,STARLINK-3799,PAYLOAD,2024-04-09 05:38:38,15.08839446,0.0001538,53.2176,89.1015,95.2824,264.8344,9.4712e-05,1.22e-05,0.0,0 STARLINK-3799,1 52382U 22045BD  24100.23516947  .00001220  00000-0  94712-4 0  9999,2 52382  53.2176  89.1015 0001538  95.2824 264.8344 15.08839446110334,6917.882,95.438,540.811,538.683,0.0
52382.0,STARLINK-3799,PAYLOAD,2024-04-09 08:49:24,15.08841207,0.0001486,53.2179,88.5064,97.2606,262.8555,5.2913e-05,5.54e-06,0.0,0 STARLINK-3799,1 52382U 22045BD  24100.36764943  .00000554  00000-0  52913-4 0  9990,2 52382  53.2179  88.5064 0001486  97.2606 262.8555 15.08841207110358,6917.877,95.437,540.77,538.714,0.0
52382.0,STARLINK-3799,PAYLOAD,2024-04-09 16:46:20,15.08842877,0.0001495,53.218,87.0195,96.3288,263.7875,4.8987e-05,4.92e-06,0.0,0 STARLINK-3799,1 52382U 22045BD  24100.69884816  .00000492  00000-0  48987-4 0  9995,2 52382  53.2180  87.0195 0001495  96.3288 263.7875 15.08842877110400,6917.872,95.437,540.771,538.702,0.0
52382.0,STARLINK-3799,PAYLOAD,2024-04-10 05:29:25,15.08837029,0.0001423,53.2178,84.6419,92.6821,267.4334,1.3103e-05,-7.9e-07,0.0,0 STARLINK-3799,1 52382U 22045BD  24101.22877261 -.00000079  00000-0  13103-4 0  9995,2 52382  53.2178  84.6419 0001423  92.6821 267.4334 15.08837029110484,6917.889,95.438,540.739,538.77,0.0
52382.0,STARLINK-3799,PAYLOAD,2024-04-11 08:30:59,15.08845321,0.0001173,53.2191,79.586,88.0306,272.082,-8.3602e-05,-1.618e-05,0.0,0 STARLINK-3799,1 52382U 22045BD  24102.35485081 -.00001618  00000-0 -83602-4 0  9997,2 52382  53.2191  79.5860 0001173  88.0306 272.0820 15.08845321110656,6917.864,95.437,540.541,538.918,0.0
52382.0,STARLINK-3799,PAYLOAD,2024-04-11 14:52:31,15.08842853,0.0001312,53.2197,78.3978,92.8002,267.3141,-1.8052e-06,-3.17e-06,0.0,0 STARLINK-3799,1 52382U 22045BD  24102.61980983 -.00000317  00000-0 -18052-5 0  9990,2 52382  53.2197  78.3978 0001312  92.8002 267.3141 15.08842853110694,6917.872,95.437,540.644,538.829,0.0
52382.0,STARLINK-3799,PAYLOAD,2024-04-12 05:11:00,15.0883121,0.0001524,53.2197,75.7232,94.7373,265.3793,5.0152e-05,5.1e-06,0.0,0 STARLINK-3799,1 52382U 22045BD  24103.21597867  .00000510  00000-0  50152-4 0  9991,2 52382  53.2197  75.7232 0001524  94.7373 265.3793 15.08831210110781,6917.907,95.438,540.827,538.718,0.0
52382.0,STARLINK-3799,PAYLOAD,2024-04-12 08:21:46,15.08834601,0.0001486,53.2187,75.126,96.8416,263.2745,3.2922e-05,2.36e-06,0.0,0 STARLINK-3799,1 52382U 22045BD  24103.34845733  .00000236  00000-0  32922-4 0  9993,2 52382  53.2187  75.1260 0001486  96.8416 263.2745 15.08834601110807,6917.897,95.438,540.79,538.734,0.0
52382.0,STARLINK-3799,PAYLOAD,2024-04-13 03:26:24,15.08833061,0.0001548,53.2193,71.5595,98.1841,261.9326,5.6628e-05,6.13e-06,0.0,0 STARLINK-3799,1 52382U 22045BD  24104.14334017  .00000613  00000-0  56628-4 0  9998,2 52382  53.2193  71.5595 0001548  98.1841 261.9326 15.08833061110923,6917.902,95.438,540.837,538.696,0.0
52382.0,STARLINK-3799,PAYLOAD,2024-04-14 04:52:34,15.08841408,0.0001339,53.2183,66.7987,87.6316,272.4829,9.7557e-05,1.265e-05,0.0,0 STARLINK-3799,1 52382U 22045BD  24105.20317746  .00001265  00000-0  97557-4 0  9996,2 52382  53.2183  66.7987 0001339  87.6316 272.4829 15.08841408111088,6917.876,95.437,540.667,538.815,0.0
52382.0,STARLINK-3799,PAYLOAD,2024-04-14 06:27:57,15.08842785,0.0001371,53.2185,66.5013,95.3038,264.811,0.0001122,1.498e-05,0.0,0 STARLINK-3799,1 52382U 22045BD  24105.26941596  .00001498  00000-0  11220-3 0  9998,2 52382  53.2185  66.5013 0001371  95.3038 264.8110 15.08842785111099,6917.872,95.437,540.685,538.788,0.0
52382.0,STARLINK-3799,PAYLOAD,2024-04-15 04:43:21,15.08843631,0.0001403,53.2189,62.3374,89.7584,270.3569,0.00012372,1.682e-05,0.0,0 STARLINK-3799,1 52382U 22045BD  24106.19677605  .00001682  00000-0  12372-3 0  9992,2 52382  53.2189  62.3374 0001403  89.7584 270.3569 15.08843631111233,6917.869,95.437,540.705,538.764,0.0
52382.0,STARLINK-3799,PAYLOAD,2024-04-15 20:37:12,15.08848564,0.0001435,53.2192,59.3658,86.9526,273.1631,6.5439e-05,7.54e-06,0.0,0 STARLINK-3799,1 52382U 22045BD  24106.85917437  .00000754  00000-0  65439-4 0  9997,2 52382  53.2192  59.3658 0001435  86.9526 273.1631 15.08848564111330,6917.854,95.437,540.712,538.727,0.0
52382.0,STARLINK-3799,PAYLOAD,2024-04-16 02:58:45,15.08839707,0.0001764,53.2194,58.1772,80.0307,280.0884,-1.2405e-05,-4.86e-06,0.0,0 STARLINK-3799,1 52382U 22045BD  24107.12414206 -.00000486  00000-0 -12405-4 0  9993,2 52382  53.2194  58.1772 0001764  80.0307 280.0884 15.08839707111373,6917.881,95.438,540.967,538.526,0.0
52382.0,STARLINK-3799,PAYLOAD,2024-04-16 14:06:26,15.08857335,0.0001589,53.2208,56.0933,88.7328,271.3847,0.00015353,2.157e-05,0.0,0 STARLINK-3799,1 52382U 22045BD  24107.58780491  .00002157  00000-0  15353-3 0  9994,2 52382  53.2208  56.0933 0001589  88.7328 271.3847 15.08857335111445,6917.827,95.436,540.792,538.593,0.0
52382.0,STARLINK-3799,PAYLOAD,2024-04-17 02:49:32,15.08844383,0.0001653,53.218,53.7165,89.4861,270.6321,4.5934e-05,4.43e-06,0.0,0 STARLINK-3799,1 52382U 22045BD  24108.11773357  .00000443  00000-0  45934-4 0  9992,2 52382  53.2180  53.7165 0001653  89.4861 270.6321 15.08844383111524,6917.867,95.437,540.876,538.588,0.0
52382.0,STARLINK-3799,PAYLOAD,2024-04-17 06:00:17,15.08861301,0.0001435,53.2188,53.1202,99.7475,260.3679,0.00024451,3.608e-05,0.0,0 STARLINK-3799,1 52382U 22045BD  24108.25020344  .00003608  00000-0  24451-3 0  9994,2 52382  53.2188  53.1202 0001435  99.7475 260.3679 15.08861301111544,6917.815,95.436,540.673,538.688,0.0
52382.0,STARLINK-3799,PAYLOAD,2024-04-18 01:04:57,15.08822757,0.0001375,53.218,49.5542,101.5347,258.58,-5.2757e-05,-1.127e-05,0.0,0 STARLINK-3799,1 52382U 22045BD  24109.04510737 -.00001127  00000-0 -52757-4 0  9999,2 52382  53.2180  49.5542 0001375 101.5347 258.5800 15.08822757111665,6917.933,95.439,540.749,538.847,0.0
52382.0,STARLINK-3799,PAYLOAD,2024-04-19 02:31:07,15.0884328,0.0001408,53.2184,44.7941,104.0632,256.0517,0.00011763,1.585e-05,0.0,0 STARLINK-3799,1 52382U 22045BD  24110.10494637  .00001585  00000-0  11763-3 0  9995,2 52382  53.2184  44.7941 0001408 104.0632 256.0517 15.08843280111821,6917.87,95.437,540.709,538.761,0.0
52382.0,STARLINK-3799,PAYLOAD,2024-04-19 05:41:53,15.08837949,0.0001616,53.2188,44.1958,93.745,266.3727,9.4108e-05,1.21e-05,0.0,0 STARLINK-3799,1 52382U 22045BD  24110.23742967  .00001210  00000-0  94108-4 0  9991,2 52382  53.2188  44.1958 0001616  93.7450 266.3727 15.08837949111844,6917.887,95.438,540.87,538.634,0.0
52382.0,STARLINK-3799,PAYLOAD,2024-04-20 02:21:53,15.08871194,0.0001474,53.2187,40.3325,104.7425,255.373,0.00082423,0.00012865,0.0,0 STARLINK-3799,1 52382U 22045BD  24111.09854070  .00012865  00000-0  82423-3 0  9999,2 52382  53.2187  40.3325 0001474 104.7425 255.3730 15.08871194111972,6917.785,95.436,540.67,538.63,0.0
